[{"OBJECT_NAME":"STELLA","OBJECT_ID":"1993-061B","EPOCH":"2026-03-09T22:50:14.153280","MEAN_MOTION":14.2746756,"ECCENTRICITY":0.00067535,"INCLINATION":98.784,"RA_OF_ASC_NODE":132.7988,"ARG_OF_PERICENTER":156.9855,"MEAN_ANOMALY":327.7404,"EPHEMERIS_TYPE":0,"CLASSIFICATION_TYPE":"U","NORAD_CAT_ID":22824,"ELEMENT_SET_NO":999,"REV_AT_EPOCH":69061,"BSTAR":7.617075e-6,"MEAN_MOTION_DOT":-2.6e-7,"MEAN_MOTION_DDOT":0},{"OBJECT_NAME":"CZ-6A DEB","OBJECT_ID":"2024-140VZ","EPOCH":"2026-03-09T01:10:56.849376","MEAN_MOTION":14.19511088,"ECCENTRICITY":0.00505443,"INCLINATION":89.0132,"RA_OF_ASC_NODE":287.2459,"ARG_OF_PERICENTER":153.86,"MEAN_ANOMALY":206.5159,"EPHEMERIS_TYPE":0,"CLASSIFICATION_TYPE":"U","NORAD_CAT_ID":61360,"ELEMENT_SET_NO":999,"REV_AT_EPOCH":7820,"BSTAR":0.0005141503,"MEAN_MOTION_DOT":1.111e-5,"MEAN_MOTION_DDOT":0}]
